{
    "links": {
        "self": "http://www.neowsapp.com/rest/v1/neo/54016199?api_key=iIulBulltgU6a56xZRHN4H3l9WmuAYTsLGpBGhQ2"
    },
    "id": "54016199",
    "neo_reference_id": "54016199",
    "name": "(2020 FF)",
    "designation": "2020 FF",
    "nasa_jpl_url": "http://ssd.jpl.nasa.gov/sbdb.cgi?sstr=54016199",
    "absolute_magnitude_h": 26.805,
    "estimated_diameter": {
        "kilometers": {
            "estimated_diameter_min": 0.0115759056,
            "estimated_diameter_max": 0.0258845118
        },
        "meters": {
            "estimated_diameter_min": 11.5759056026,
            "estimated_diameter_max": 25.8845118285
        },
        "miles": {
            "estimated_diameter_min": 0.007192932,
            "estimated_diameter_max": 0.016083885
        },
        "feet": {
            "estimated_diameter_min": 37.9786941371,
            "estimated_diameter_max": 84.9229417873
        }
    },
    "is_potentially_hazardous_asteroid": false,
    "close_approach_data": [
        {
            "close_approach_date": "1963-11-27",
            "close_approach_date_full": "1963-Nov-27 08:07",
            "epoch_date_close_approach": -192383580000,
            "relative_velocity": {
                "kilometers_per_second": "11.5224517308",
                "kilometers_per_hour": "41480.8262309038",
                "miles_per_hour": "25774.5722766413"
            },
            "miss_distance": {
                "astronomical": "0.0516912397",
                "lunar": "20.1078922433",
                "kilometers": "7732899.356779439",
                "miles": "4805000.8494526982"
            },
            "orbiting_body": "Mars"
        },
        {
            "close_approach_date": "2020-03-24",
            "close_approach_date_full": "2020-Mar-24 05:06",
            "epoch_date_close_approach": 1585026360000,
            "relative_velocity": {
                "kilometers_per_second": "5.5859075317",
                "kilometers_per_hour": "20109.267114147",
                "miles_per_hour": "12495.1165576765"
            },
            "miss_distance": {
                "astronomical": "0.0406105804",
                "lunar": "15.7975157756",
                "kilometers": "6075256.327303748",
                "miles": "3774989.2332098024"
            },
            "orbiting_body": "Earth"
        },
        {
            "close_approach_date": "2147-03-08",
            "close_approach_date_full": "2147-Mar-08 17:10",
            "epoch_date_close_approach": 5591351400000,
            "relative_velocity": {
                "kilometers_per_second": "10.7693191047",
                "kilometers_per_hour": "38769.5487768667",
                "miles_per_hour": "24089.8899052703"
            },
            "miss_distance": {
                "astronomical": "0.0926541849",
                "lunar": "36.0424779261",
                "kilometers": "13860868.707626163",
                "miles": "8612744.4366525294"
            },
            "orbiting_body": "Mars"
        }
    ],
    "orbital_data": {
        "orbit_id": "1",
        "orbit_determination_date": "2020-03-17 07:48:26",
        "first_observation_date": "2020-03-14",
        "last_observation_date": "2020-03-16",
        "data_arc_in_days": 2,
        "observations_used": 15,
        "orbit_uncertainty": "8",
        "minimum_orbit_intersection": ".0349964",
        "jupiter_tisserand_invariant": "3.995",
        "epoch_osculation": "2458923.5",
        "eccentricity": ".4175614445613319",
        "semi_major_axis": "1.77254581289875",
        "inclination": "2.563752375210283",
        "ascending_node_longitude": "356.7725089871574",
        "orbital_period": "861.9749202533957",
        "perihelion_distance": "1.032399022713608",
        "perihelion_argument": "194.5189682438822",
        "aphelion_distance": "2.512692603083893",
        "perihelion_time": "2458938.718810006500",
        "mean_anomaly": "353.6439315418488",
        "mean_motion": ".4176455620010039",
        "equinox": "J2000",
        "orbit_class": {
            "orbit_class_type": "AMO",
            "orbit_class_description": "Near-Earth asteroid orbits similar to that of 1221 Amor",
            "orbit_class_range": "1.017 AU < q (perihelion) < 1.3 AU"
        }
    },
    "is_sentry_object": false
}